0 DELTA 1 DEB *
1 09703U 73086GB  13282.86243293  .00000082  00000-0  18374-3 0  2816
2 09703 065.7205 125.2035 0136501 231.4581 224.2632 13.66245906951002
0 DELTA 1 DEB *
1 09703U 73086GB  13283.64795389  .00000169  00000-0  19137-3 0  2837
2 09703 065.7211 123.2870 0136726 230.9387 127.9888 13.66246129951113
0 DELTA 1 DEB *
1 09703U 73086GB  13287.84288367  .00000066  00000-0  16500-3 0  2833
2 09703 065.7208 113.0238 0136222 229.2694 240.4266 13.66247926951686
0 DELTA 1 DEB *
1 09703U 73086GB  13290.03392545  .00000072  00000-0  17183-3 0  2848
2 09703 065.7211 107.6649 0136110 228.3239 216.9803 13.66248899951984
0 DELTA 1 DEB *
1 09703U 73086GB  13290.60197427  .00000202  00000-0  22886-3 0  2866
2 09703 065.7207 106.2798 0136344 227.9251 131.0603 13.66248841952069
0 DELTA 1 DEB *
1 09703U 73086GB  13292.74449074  .00000151  00000-0  26216-3 0  2854
2 09703 065.7215 101.0360 0136042 227.1485 228.8087 13.66249563952357
0 DELTA 1 DEB *
1 09703U 73086GB  13294.86251395  .00000200  00000-0  31801-3 0  2868
2 09703 065.7217 095.8562 0135900 226.2313 206.2418 13.66250549952641
